*******************************************************************************
Ephemeris / WWW_USER Mon Mar 24 08:02:13 2025 Pasadena, USA      / Horizons    
*******************************************************************************
Target body name: (2018 UM1)                      {source: JPL#32}
Center body name: Earth (399)                     {source: DE441}
Center-site name: Mauna Kea
*******************************************************************************
Start time      : A.D. 2018-Oct-04 04:17:00.0000 UT      
Stop  time      : A.D. 2018-Oct-04 16:04:00.0000 UT      
Step-size       : 1 minutes
*******************************************************************************
Target pole/equ : undefined
Target radii    : undefined                                                    
Center geodetic : 204.5278, 19.8260847, 4.21024   {E-lon(deg),Lat(deg),Alt(km)}
Center cylindric: 204.5278, 6006.35451, 2151.0229 {E-lon(deg),Dxy(km),Dz(km)}
Center pole/equ : ITRF93                          {East-longitude positive}
Center radii    : 6378.137, 6378.137, 6356.752 km {Equator_a, b, pole_c}       
Target primary  : Sun
Vis. interferer : MOON (R_eq= 1737.400) km        {source: DE441}
Rel. light bend : Sun                             {source: DE441}
Rel. lght bnd GM: 1.3271E+11 km^3/s^2                                          
Small-body perts: Yes                             {source: SB441-N16}
Atmos refraction: NO (AIRLESS)
RA format       : HMS
Time format     : CAL 
Calendar mode   : Mixed Julian/Gregorian
RTS-only print  : NO       
EOP file        : eop.250321.p250617                                           
EOP coverage    : DATA-BASED 1962-JAN-20 TO 2025-MAR-21. PREDICTS-> 2025-JUN-16
Units conversion: 1 au= 149597870.700 km, c= 299792.458 km/s, 1 day= 86400.0 s 
Table cut-offs 1: Elevation (-90.0deg=NO ),Airmass (>38.000=NO), Daylight (YES)
Table cut-offs 2: Solar elongation (  0.0,180.0=NO ),Local Hour Angle( 0.0=NO )
Table cut-offs 3: RA/DEC angular rate (     0.0=NO )                           
*******************************************************************************
Initial IAU76/J2000 heliocentric ecliptic osculating elements (au, days, deg.):
  EPOCH=  2458316.5 ! 2018-Jul-17.00 (TDB)         Residual RMS= .13282        
   EC= .1732206266096905   QR= .9442469573310488   TP= 2458347.0882341689      
   OM= 261.2771090241423   W=  53.36399135060417   IN= 1.987806152492243       
  Equivalent ICRF heliocentric cartesian coordinates (au, au/d):
   X= 1.631856825953344E-01  Y=-8.815145891163165E-01  Z=-3.705958742828900E-01
  VX= 1.811434055353769E-02 VY= 4.114587132606022E-03 VZ= 2.434006136501484E-03
Asteroid physical parameters (km, seconds, rotational period in hours):        
   GM= n.a.                RAD= n.a.               ROTPER= n.a.                
   H= 23.64                G= .150                 B-V= n.a.                   
                           ALBEDO= n.a.            STYP= n.a.                  
*******************************************************************************
 Date__(UT)__HR:MN     R.A._________(ICRF)_________DEC
******************************************************
$$SOE
 2018-Oct-04 06:20     18 56 28.807299 +22 46 57.92323
 2018-Oct-04 06:21     18 56 29.465638 +22 46 59.50661
 2018-Oct-04 06:22     18 56 30.124101 +22 47 01.08866
 2018-Oct-04 06:23     18 56 30.782690 +22 47 02.66938
 2018-Oct-04 06:24     18 56 31.441405 +22 47 04.24879
 2018-Oct-04 06:25     18 56 32.100248 +22 47 05.82688
 2018-Oct-04 06:26     18 56 32.759219 +22 47 07.40366
 2018-Oct-04 06:27     18 56 33.418320 +22 47 08.97913
 2018-Oct-04 06:28     18 56 34.077550 +22 47 10.55328
 2018-Oct-04 06:29     18 56 34.736912 +22 47 12.12614
 2018-Oct-04 06:30     18 56 35.396406 +22 47 13.69768
 2018-Oct-04 06:31     18 56 36.056033 +22 47 15.26793
 2018-Oct-04 06:32     18 56 36.715793 +22 47 16.83688
 2018-Oct-04 06:33     18 56 37.375689 +22 47 18.40454
 2018-Oct-04 06:34     18 56 38.035719 +22 47 19.97090
 2018-Oct-04 06:35     18 56 38.695887 +22 47 21.53597
 2018-Oct-04 06:36     18 56 39.356191 +22 47 23.09976
 2018-Oct-04 06:37     18 56 40.016634 +22 47 24.66226
 2018-Oct-04 06:38     18 56 40.677216 +22 47 26.22348
 2018-Oct-04 06:39     18 56 41.337937 +22 47 27.78343
 2018-Oct-04 06:40     18 56 41.998800 +22 47 29.34210
 2018-Oct-04 06:41     18 56 42.659804 +22 47 30.89949
 2018-Oct-04 06:42     18 56 43.320951 +22 47 32.45562
 2018-Oct-04 06:43     18 56 43.982242 +22 47 34.01048
 2018-Oct-04 06:44     18 56 44.643676 +22 47 35.56408
 2018-Oct-04 06:45     18 56 45.305256 +22 47 37.11642
 2018-Oct-04 06:46     18 56 45.966982 +22 47 38.66750
 2018-Oct-04 06:47     18 56 46.628855 +22 47 40.21732
 2018-Oct-04 06:48     18 56 47.290875 +22 47 41.76590
 2018-Oct-04 06:49     18 56 47.953044 +22 47 43.31322
 2018-Oct-04 06:50     18 56 48.615363 +22 47 44.85930
 2018-Oct-04 06:51     18 56 49.277832 +22 47 46.40414
 2018-Oct-04 06:52     18 56 49.940452 +22 47 47.94775
 2018-Oct-04 06:53     18 56 50.603224 +22 47 49.49011
 2018-Oct-04 06:54     18 56 51.266148 +22 47 51.03124
 2018-Oct-04 06:55     18 56 51.929227 +22 47 52.57115
 2018-Oct-04 06:56     18 56 52.592460 +22 47 54.10983
 2018-Oct-04 06:57     18 56 53.255848 +22 47 55.64728
 2018-Oct-04 06:58     18 56 53.919392 +22 47 57.18352
 2018-Oct-04 06:59     18 56 54.583093 +22 47 58.71854
 2018-Oct-04 07:00     18 56 55.246953 +22 48 00.25235
 2018-Oct-04 07:01     18 56 55.910970 +22 48 01.78494
 2018-Oct-04 07:02     18 56 56.575147 +22 48 03.31633
 2018-Oct-04 07:03     18 56 57.239485 +22 48 04.84652
 2018-Oct-04 07:04     18 56 57.903983 +22 48 06.37551
 2018-Oct-04 07:05     18 56 58.568643 +22 48 07.90331
 2018-Oct-04 07:06     18 56 59.233466 +22 48 09.42991
 2018-Oct-04 07:07     18 56 59.898453 +22 48 10.95532
 2018-Oct-04 07:08     18 57 00.563604 +22 48 12.47955
 2018-Oct-04 07:09     18 57 01.228919 +22 48 14.00259
 2018-Oct-04 07:10     18 57 01.894401 +22 48 15.52446
 2018-Oct-04 07:11     18 57 02.560049 +22 48 17.04515
 2018-Oct-04 07:12     18 57 03.225865 +22 48 18.56467
 2018-Oct-04 07:13     18 57 03.891849 +22 48 20.08302
 2018-Oct-04 07:14     18 57 04.558002 +22 48 21.60020
 2018-Oct-04 07:15     18 57 05.224324 +22 48 23.11623
 2018-Oct-04 07:16     18 57 05.890818 +22 48 24.63110
 2018-Oct-04 07:17     18 57 06.557482 +22 48 26.14481
 2018-Oct-04 07:18     18 57 07.224319 +22 48 27.65738
 2018-Oct-04 07:19     18 57 07.891328 +22 48 29.16880
 2018-Oct-04 07:20     18 57 08.558512 +22 48 30.67907
 2018-Oct-04 07:21     18 57 09.225869 +22 48 32.18821
 2018-Oct-04 07:22     18 57 09.893402 +22 48 33.69621
 2018-Oct-04 07:23     18 57 10.561111 +22 48 35.20308
 2018-Oct-04 07:24     18 57 11.228996 +22 48 36.70882
 2018-Oct-04 07:25     18 57 11.897059 +22 48 38.21344
 2018-Oct-04 07:26     18 57 12.565300 +22 48 39.71694
 2018-Oct-04 07:27     18 57 13.233720 +22 48 41.21932
 2018-Oct-04 07:28     18 57 13.902319 +22 48 42.72059
 2018-Oct-04 07:29     18 57 14.571099 +22 48 44.22075
 2018-Oct-04 07:30     18 57 15.240060 +22 48 45.71981
 2018-Oct-04 07:31     18 57 15.909203 +22 48 47.21776
 2018-Oct-04 07:32     18 57 16.578528 +22 48 48.71462
 2018-Oct-04 07:33     18 57 17.248037 +22 48 50.21039
 2018-Oct-04 07:34     18 57 17.917729 +22 48 51.70506
 2018-Oct-04 07:35     18 57 18.587607 +22 48 53.19865
 2018-Oct-04 07:36     18 57 19.257670 +22 48 54.69116
 2018-Oct-04 07:37     18 57 19.927919 +22 48 56.18260
 2018-Oct-04 07:38     18 57 20.598355 +22 48 57.67295
 2018-Oct-04 07:39     18 57 21.268978 +22 48 59.16224
 2018-Oct-04 07:40     18 57 21.939790 +22 49 00.65047
 2018-Oct-04 07:41     18 57 22.610790 +22 49 02.13763
 2018-Oct-04 07:42     18 57 23.281981 +22 49 03.62374
 2018-Oct-04 07:43     18 57 23.953361 +22 49 05.10879
 2018-Oct-04 07:44     18 57 24.624933 +22 49 06.59280
 2018-Oct-04 07:45     18 57 25.296697 +22 49 08.07576
 2018-Oct-04 07:46     18 57 25.968652 +22 49 09.55767
 2018-Oct-04 07:47     18 57 26.640801 +22 49 11.03856
 2018-Oct-04 07:48     18 57 27.313144 +22 49 12.51841
 2018-Oct-04 07:49     18 57 27.985681 +22 49 13.99723
 2018-Oct-04 07:50     18 57 28.658413 +22 49 15.47503
 2018-Oct-04 07:51     18 57 29.331341 +22 49 16.95180
 2018-Oct-04 07:52     18 57 30.004466 +22 49 18.42757
 2018-Oct-04 07:53     18 57 30.677787 +22 49 19.90232
 2018-Oct-04 07:54     18 57 31.351306 +22 49 21.37606
 2018-Oct-04 07:55     18 57 32.025024 +22 49 22.84880
 2018-Oct-04 07:56     18 57 32.698940 +22 49 24.32055
 2018-Oct-04 07:57     18 57 33.373057 +22 49 25.79130
 2018-Oct-04 07:58     18 57 34.047373 +22 49 27.26106
 2018-Oct-04 07:59     18 57 34.721891 +22 49 28.72983
 2018-Oct-04 08:00     18 57 35.396610 +22 49 30.19762
 2018-Oct-04 08:01     18 57 36.071531 +22 49 31.66444
 2018-Oct-04 08:02     18 57 36.746655 +22 49 33.13028
 2018-Oct-04 08:03     18 57 37.421983 +22 49 34.59516
 2018-Oct-04 08:04     18 57 38.097514 +22 49 36.05907
 2018-Oct-04 08:05     18 57 38.773250 +22 49 37.52202
 2018-Oct-04 08:06     18 57 39.449192 +22 49 38.98402
 2018-Oct-04 08:07     18 57 40.125339 +22 49 40.44506
 2018-Oct-04 08:08     18 57 40.801693 +22 49 41.90517
 2018-Oct-04 08:09     18 57 41.478254 +22 49 43.36433
 2018-Oct-04 08:10     18 57 42.155023 +22 49 44.82255
 2018-Oct-04 08:11     18 57 42.832000 +22 49 46.27984
 2018-Oct-04 08:12     18 57 43.509186 +22 49 47.73621
 2018-Oct-04 08:13     18 57 44.186581 +22 49 49.19165
 2018-Oct-04 08:14     18 57 44.864186 +22 49 50.64617
 2018-Oct-04 08:15     18 57 45.542002 +22 49 52.09978
 2018-Oct-04 08:16     18 57 46.220030 +22 49 53.55247
 2018-Oct-04 08:17     18 57 46.898269 +22 49 55.00427
 2018-Oct-04 08:18     18 57 47.576720 +22 49 56.45516
 2018-Oct-04 08:19     18 57 48.255384 +22 49 57.90516
 2018-Oct-04 08:20     18 57 48.934261 +22 49 59.35426
 2018-Oct-04 08:21     18 57 49.613353 +22 50 00.80248
 2018-Oct-04 08:22     18 57 50.292659 +22 50 02.24982
